[{"OBJECT_NAME":"SHIJIAN-6 04A (SJ-6 04A)","OBJECT_ID":"2010-051A","EPOCH":"2026-03-09T23:23:42.914400","MEAN_MOTION":15.16645177,"ECCENTRICITY":0.00182577,"INCLINATION":97.8386,"RA_OF_ASC_NODE":88.8025,"ARG_OF_PERICENTER":202.8454,"MEAN_ANOMALY":157.1968,"EPHEMERIS_TYPE":0,"CLASSIFICATION_TYPE":"U","NORAD_CAT_ID":37179,"ELEMENT_SET_NO":999,"REV_AT_EPOCH":84190,"BSTAR":0.00032742446,"MEAN_MOTION_DOT":6.359e-5,"MEAN_MOTION_DDOT":0},{"OBJECT_NAME":"STARLINK-4346","OBJECT_ID":"2022-077AG","EPOCH":"2026-03-09T23:20:05.829216","MEAN_MOTION":15.20483722,"ECCENTRICITY":0.00045407,"INCLINATION":97.6378,"RA_OF_ASC_NODE":257.0949,"ARG_OF_PERICENTER":212.0804,"MEAN_ANOMALY":148.0155,"EPHEMERIS_TYPE":0,"CLASSIFICATION_TYPE":"U","NORAD_CAT_ID":53073,"ELEMENT_SET_NO":999,"REV_AT_EPOCH":20134,"BSTAR":0.00030178555,"MEAN_MOTION_DOT":6.523e-5,"MEAN_MOTION_DDOT":0}]
